{
  "type": "FeatureCollection",
  "features": [
    {
      "type": "Feature",
      "properties": {
        "norad_id": 24946,
        "name": "IRIDIUM 33",
        "group": "iridium-33-debris",
        "lat": 66.00029946531717,
        "lon": -119.08343684180252,
        "alt_km": 768.950579365207,
        "timestamp": "2025-12-10T16:57:12.022823+00:00",
        "meta_object_name": "IRIDIUM 33",
        "meta_object_id": "1997-051C",
        "meta_epoch": "2025-12-10T11:24:15.672096",
        "meta_mean_motion": 14.35034929,
        "meta_eccentricity": 0.0006773,
        "meta_inclination": 86.387,
        "meta_ra_of_asc_node": 69.1722,
        "meta_arg_of_pericenter": 208.6208,
        "meta_mean_anomaly": 151.4617,
        "meta_ephemeris_type": 0,
        "meta_classification_type": "U",
        "meta_norad_cat_id": 24946,
        "meta_element_set_no": 999,
        "meta_rev_at_epoch": 47802,
        "meta_bstar": 0.0001957,
        "meta_mean_motion_dot": 5.77e-06,
        "meta_mean_motion_ddot": 0,
        "tle_line1": "1 24946U 97051C   25344.47518139  .00000577  00000+0  19570-3 0  9996",
        "tle_line2": "2 24946  86.3870  69.1722 0006773 208.6208 151.4617 14.35034929478021"
      },
      "geometry": {
        "type": "Point",
        "coordinates": [
          -119.08343684180252,
          66.00029946531717
        ]
      }
    },
    {
      "type": "Feature",
      "properties": {
        "norad_id": 33773,
        "name": "IRIDIUM 33 DEB",
        "group": "iridium-33-debris",
        "lat": 10.480508029330345,
        "lon": 62.11817588313307,
        "alt_km": 756.2419560924491,
        "timestamp": "2025-12-10T16:57:12.022870+00:00",
        "meta_object_name": "IRIDIUM 33 DEB",
        "meta_object_id": "1997-051L",
        "meta_epoch": "2025-12-10T11:54:46.043136",
        "meta_mean_motion": 14.43249294,
        "meta_eccentricity": 0.0012273,
        "meta_inclination": 86.4013,
        "meta_ra_of_asc_node": 61.5401,
        "meta_arg_of_pericenter": 153.0085,
        "meta_mean_anomaly": 207.1757,
        "meta_ephemeris_type": 0,
        "meta_classification_type": "U",
        "meta_norad_cat_id": 33773,
        "meta_element_set_no": 999,
        "meta_rev_at_epoch": 88315,
        "meta_bstar": 0.00048914,
        "meta_mean_motion_dot": 1.666e-05,
        "meta_mean_motion_ddot": 0,
        "tle_line1": "1 33773U 97051L   25344.49636624  .00001666  00000+0  48914-3 0  9990",
        "tle_line2": "2 33773  86.4013  61.5401 0012273 153.0085 207.1757 14.43249294883157"
      },
      "geometry": {
        "type": "Point",
        "coordinates": [
          62.11817588313307,
          10.480508029330345
        ]
      }
    },
    {
      "type": "Feature",
      "properties": {
        "norad_id": 33775,
        "name": "IRIDIUM 33 DEB",
        "group": "iridium-33-debris",
        "lat": 72.44675790817344,
        "lon": -141.17522894203958,
        "alt_km": 740.8490081980553,
        "timestamp": "2025-12-10T16:57:12.022887+00:00",
        "meta_object_name": "IRIDIUM 33 DEB",
        "meta_object_id": "1997-051N",
        "meta_epoch": "2025-12-10T11:30:55.921824",
        "meta_mean_motion": 14.41461021,
        "meta_eccentricity": 0.0014048,
        "meta_inclination": 86.3639,
        "meta_ra_of_asc_node": 50.5184,
        "meta_arg_of_pericenter": 161.5462,
        "meta_mean_anomaly": 210.7248,
        "meta_ephemeris_type": 0,
        "meta_classification_type": "U",
        "meta_norad_cat_id": 33775,
        "meta_element_set_no": 999,
        "meta_rev_at_epoch": 88108,
        "meta_bstar": 0.00051864,
        "meta_mean_motion_dot": 1.703e-05,
        "meta_mean_motion_ddot": 0,
        "tle_line1": "1 33775U 97051N   25344.47981391  .00001703  00000+0  51864-3 0  9994",
        "tle_line2": "2 33775  86.3639  50.5184 0014048 161.5462 210.7248 14.41461021881080"
      },
      "geometry": {
        "type": "Point",
        "coordinates": [
          -141.17522894203958,
          72.44675790817344
        ]
      }
    },
    {
      "type": "Feature",
      "properties": {
        "norad_id": 33776,
        "name": "IRIDIUM 33 DEB",
        "group": "iridium-33-debris",
        "lat": 0.5320846443094593,
        "lon": 81.66320699446038,
        "alt_km": 776.9657024419894,
        "timestamp": "2025-12-10T16:57:12.022901+00:00",
        "meta_object_name": "IRIDIUM 33 DEB",
        "meta_object_id": "1997-051P",
        "meta_epoch": "2025-12-10T07:10:53.796000",
        "meta_mean_motion": 14.38228746,
        "meta_eccentricity": 0.0014051,
        "meta_inclination": 86.4037,
        "meta_ra_of_asc_node": 81.8007,
        "meta_arg_of_pericenter": 198.4306,
        "meta_mean_anomaly": 215.4156,
        "meta_ephemeris_type": 0,
        "meta_classification_type": "U",
        "meta_norad_cat_id": 33776,
        "meta_element_set_no": 999,
        "meta_rev_at_epoch": 88047,
        "meta_bstar": 0.00052587,
        "meta_mean_motion_dot": 1.618e-05,
        "meta_mean_motion_ddot": 0,
        "tle_line1": "1 33776U 97051P   25344.29923375  .00001618  00000+0  52587-3 0  9991",
        "tle_line2": "2 33776  86.4037  81.8007 0014051 198.4306 215.4156 14.38228746880478"
      },
      "geometry": {
        "type": "Point",
        "coordinates": [
          81.66320699446038,
          0.5320846443094593
        ]
      }
    },
    {
      "type": "Feature",
      "properties": {
        "norad_id": 33777,
        "name": "IRIDIUM 33 DEB",
        "group": "iridium-33-debris",
        "lat": 21.225814097209643,
        "lon": 37.49731577187742,
        "alt_km": 709.3519564471144,
        "timestamp": "2025-12-10T16:57:12.022913+00:00",
        "meta_object_name": "IRIDIUM 33 DEB",
        "meta_object_id": "1997-051Q",
        "meta_epoch": "2025-12-10T10:15:22.862880",
        "meta_mean_motion": 14.55586359,
        "meta_eccentricity": 0.0005075,
        "meta_inclination": 86.3784,
        "meta_ra_of_asc_node": 36.2091,
        "meta_arg_of_pericenter": 259.7448,
        "meta_mean_anomaly": 100.3187,
        "meta_ephemeris_type": 0,
        "meta_classification_type": "U",
        "meta_norad_cat_id": 33777,
        "meta_element_set_no": 999,
        "meta_rev_at_epoch": 88500,
        "meta_bstar": 0.0013282,
        "meta_mean_motion_dot": 5.812e-05,
        "meta_mean_motion_ddot": 0,
        "tle_line1": "1 33777U 97051Q   25344.42734795  .00005812  00000+0  13282-2 0  9991",
        "tle_line2": "2 33777  86.3784  36.2091 0005075 259.7448 100.3187 14.55586359885004"
      },
      "geometry": {
        "type": "Point",
        "coordinates": [
          37.49731577187742,
          21.225814097209643
        ]
      }
    },
    {
      "type": "Feature",
      "properties": {
        "norad_id": 33850,
        "name": "IRIDIUM 33 DEB",
        "group": "iridium-33-debris",
        "lat": 82.17362694064086,
        "lon": 58.792263545991396,
        "alt_km": 743.1664444268908,
        "timestamp": "2025-12-10T16:57:12.022925+00:00",
        "meta_object_name": "IRIDIUM 33 DEB",
        "meta_object_id": "1997-051T",
        "meta_epoch": "2025-12-10T03:29:36.109248",
        "meta_mean_motion": 14.42137967,
        "meta_eccentricity": 0.00119531,
        "meta_inclination": 86.3419,
        "meta_ra_of_asc_node": 31.2952,
        "meta_arg_of_pericenter": 168.989,
        "meta_mean_anomaly": 244.4174,
        "meta_ephemeris_type": 0,
        "meta_classification_type": "U",
        "meta_norad_cat_id": 33850,
        "meta_element_set_no": 999,
        "meta_rev_at_epoch": 88115,
        "meta_bstar": 0.00047039968,
        "meta_mean_motion_dot": 1.567e-05,
        "meta_mean_motion_ddot": 0,
        "tle_line1": "1 33850U 97051T   25344.14555682  .00001567  00000+0  47040-3 0  9991",
        "tle_line2": "2 33850  86.3419  31.2952 0011953 168.9890 244.4174 14.42137967881157"
      },
      "geometry": {
        "type": "Point",
        "coordinates": [
          58.792263545991396,
          82.17362694064086
        ]
      }
    },
    {
      "type": "Feature",
      "properties": {
        "norad_id": 33853,
        "name": "IRIDIUM 33 DEB",
        "group": "iridium-33-debris",
        "lat": 60.964986476557364,
        "lon": -2.055207401423513,
        "alt_km": 1041.8264615201315,
        "timestamp": "2025-12-10T16:57:12.022938+00:00",
        "meta_object_name": "IRIDIUM 33 DEB",
        "meta_object_id": "1997-051W",
        "meta_epoch": "2025-12-09T12:13:24.016800",
        "meta_mean_motion": 13.99031995,
        "meta_eccentricity": 0.02069783,
        "meta_inclination": 85.9998,
        "meta_ra_of_asc_node": 351.2277,
        "meta_arg_of_pericenter": 245.8173,
        "meta_mean_anomaly": 269.932,
        "meta_ephemeris_type": 0,
        "meta_classification_type": "U",
        "meta_norad_cat_id": 33853,
        "meta_element_set_no": 999,
        "meta_rev_at_epoch": 85300,
        "meta_bstar": 0.0029960339,
        "meta_mean_motion_dot": 5.22e-05,
        "meta_mean_motion_ddot": 0,
        "tle_line1": "1 33853U 97051W   25343.50930575  .00005220  00000+0  29960-2 0  9991",
        "tle_line2": "2 33853  85.9998 351.2277 0206978 245.8173 269.9320 13.99031995853007"
      },
      "geometry": {
        "type": "Point",
        "coordinates": [
          -2.055207401423513,
          60.964986476557364
        ]
      }
    }
  ]
}